{
  "type": "FeatureCollection",
  "features": [
    {
      "type": "Feature",
      "properties": {
        "norad_id": 41877,
        "name": "RESOURCESAT-2A",
        "group": "resource",
        "lat": 81.17589129813742,
        "lon": -26.713655825162935,
        "alt_km": 813.2695279610998,
        "timestamp": "2025-12-13T16:48:32.370875+00:00",
        "meta_object_name": "RESOURCESAT-2A",
        "meta_object_id": "2016-074A",
        "meta_epoch": "2025-12-13T01:11:18.844224",
        "meta_mean_motion": 14.21599202,
        "meta_eccentricity": 0.00011378,
        "meta_inclination": 98.7751,
        "meta_ra_of_asc_node": 56.9031,
        "meta_arg_of_pericenter": 253.8442,
        "meta_mean_anomaly": 106.261,
        "meta_ephemeris_type": 0,
        "meta_classification_type": "U",
        "meta_norad_cat_id": 41877,
        "meta_element_set_no": 999,
        "meta_rev_at_epoch": 46785,
        "meta_bstar": 0.00012575239,
        "meta_mean_motion_dot": 2.31e-06,
        "meta_mean_motion_ddot": 0,
        "tle_line1": "1 41877U 16074A   25347.04952366  .00000231  00000+0  12575-3 0  9999",
        "tle_line2": "2 41877  98.7751  56.9031 0001137 253.8442 106.2610 14.21599202467851"
      },
      "geometry": {
        "type": "Point",
        "coordinates": [
          -26.713655825162935,
          81.17589129813742
        ]
      }
    },
    {
      "type": "Feature",
      "properties": {
        "norad_id": 41948,
        "name": "CARTOSAT-2D",
        "group": "resource",
        "lat": 71.07028723996487,
        "lon": 22.787345282813096,
        "alt_km": 500.97187665615,
        "timestamp": "2025-12-13T16:48:32.370885+00:00",
        "meta_object_name": "CARTOSAT-2D",
        "meta_object_id": "2017-008A",
        "meta_epoch": "2025-12-12T23:06:10.050912",
        "meta_mean_motion": 15.19261797,
        "meta_eccentricity": 0.0004702,
        "meta_inclination": 97.4392,
        "meta_ra_of_asc_node": 44.456,
        "meta_arg_of_pericenter": 161.2166,
        "meta_mean_anomaly": 198.9243,
        "meta_ephemeris_type": 0,
        "meta_classification_type": "U",
        "meta_norad_cat_id": 41948,
        "meta_element_set_no": 999,
        "meta_rev_at_epoch": 48930,
        "meta_bstar": 0.0003246196,
        "meta_mean_motion_dot": 6.779e-05,
        "meta_mean_motion_ddot": 0,
        "tle_line1": "1 41948U 17008A   25346.96261633  .00006779  00000+0  32462-3 0  9996",
        "tle_line2": "2 41948  97.4392  44.4560 0004702 161.2166 198.9243 15.19261797489309"
      },
      "geometry": {
        "type": "Point",
        "coordinates": [
          22.787345282813096,
          71.07028723996487
        ]
      }
    },
    {
      "type": "Feature",
      "properties": {
        "norad_id": 42063,
        "name": "SENTINEL-2B",
        "group": "resource",
        "lat": 81.40999512465767,
        "lon": -26.634414850056963,
        "alt_km": 780.7095045925525,
        "timestamp": "2025-12-13T16:48:32.370896+00:00",
        "meta_object_name": "SENTINEL-2B",
        "meta_object_id": "2017-013A",
        "meta_epoch": "2025-12-13T01:17:14.489952",
        "meta_mean_motion": 14.30816017,
        "meta_eccentricity": 0.00011595,
        "meta_inclination": 98.5711,
        "meta_ra_of_asc_node": 59.4947,
        "meta_arg_of_pericenter": 92.6477,
        "meta_mean_anomaly": 267.4839,
        "meta_ephemeris_type": 0,
        "meta_classification_type": "U",
        "meta_norad_cat_id": 42063,
        "meta_element_set_no": 999,
        "meta_rev_at_epoch": 45802,
        "meta_bstar": 0.00010682337,
        "meta_mean_motion_dot": 2.36e-06,
        "meta_mean_motion_ddot": 0,
        "tle_line1": "1 42063U 17013A   25347.05363993  .00000236  00000+0  10682-3 0  9996",
        "tle_line2": "2 42063  98.5711  59.4947 0001159  92.6477 267.4839 14.30816017458026"
      },
      "geometry": {
        "type": "Point",
        "coordinates": [
          -26.634414850056963,
          81.40999512465767
        ]
      }
    },
    {
      "type": "Feature",
      "properties": {
        "norad_id": 42767,
        "name": "CARTOSAT-2E",
        "group": "resource",
        "lat": -16.699173798898855,
        "lon": 47.52568482155719,
        "alt_km": 513.6726688672143,
        "timestamp": "2025-12-13T16:48:32.370906+00:00",
        "meta_object_name": "CARTOSAT-2E",
        "meta_object_id": "2017-036C",
        "meta_epoch": "2025-12-13T01:04:30.688896",
        "meta_mean_motion": 15.19202349,
        "meta_eccentricity": 0.0002038,
        "meta_inclination": 97.4557,
        "meta_ra_of_asc_node": 44.6271,
        "meta_arg_of_pericenter": 235.5881,
        "meta_mean_anomaly": 124.5161,
        "meta_ephemeris_type": 0,
        "meta_classification_type": "U",
        "meta_norad_cat_id": 42767,
        "meta_element_set_no": 999,
        "meta_rev_at_epoch": 46988,
        "meta_bstar": 0.00036896429,
        "meta_mean_motion_dot": 7.7e-05,
        "meta_mean_motion_ddot": 0,
        "tle_line1": "1 42767U 17036C   25347.04479964  .00007700  00000+0  36896-3 0  9995",
        "tle_line2": "2 42767  97.4557  44.6271 0002038 235.5881 124.5161 15.19202349469885"
      },
      "geometry": {
        "type": "Point",
        "coordinates": [
          47.52568482155719,
          -16.699173798898855
        ]
      }
    },
    {
      "type": "Feature",
      "properties": {
        "norad_id": 42920,
        "name": "FORMOSAT-5",
        "group": "resource",
        "lat": 18.46661028121493,
        "lon": -115.22414034993155,
        "alt_km": 727.2803241299616,
        "timestamp": "2025-12-13T16:48:32.370917+00:00",
        "meta_object_name": "FORMOSAT-5",
        "meta_object_id": "2017-049A",
        "meta_epoch": "2025-12-12T21:51:45.097632",
        "meta_mean_motion": 14.51005732,
        "meta_eccentricity": 0.00098819,
        "meta_inclination": 98.2453,
        "meta_ra_of_asc_node": 61.2266,
        "meta_arg_of_pericenter": 294.9268,
        "meta_mean_anomaly": 65.09,
        "meta_ephemeris_type": 0,
        "meta_classification_type": "U",
        "meta_norad_cat_id": 42920,
        "meta_element_set_no": 999,
        "meta_rev_at_epoch": 43966,
        "meta_bstar": 0.00011262142,
        "meta_mean_motion_dot": 4.02e-06,
        "meta_mean_motion_ddot": 0,
        "tle_line1": "1 42920U 17049A   25346.91093863  .00000402  00000+0  11262-3 0  9997",
        "tle_line2": "2 42920  98.2453  61.2266 0009881 294.9268  65.0900 14.51005732439665"
      },
      "geometry": {
        "type": "Point",
        "coordinates": [
          -115.22414034993155,
          18.46661028121493
        ]
      }
    },
    {
      "type": "Feature",
      "properties": {
        "norad_id": 42969,
        "name": "SENTINEL-5P",
        "group": "resource",
        "lat": 81.01634272309131,
        "lon": -151.52522221435106,
        "alt_km": 818.8440803714693,
        "timestamp": "2025-12-13T16:48:32.370940+00:00",
        "meta_object_name": "SENTINEL-5P",
        "meta_object_id": "2017-064A",
        "meta_epoch": "2025-12-12T18:24:14.018688",
        "meta_mean_motion": 14.19517585,
        "meta_eccentricity": 9.504e-05,
        "meta_inclination": 98.7785,
        "meta_ra_of_asc_node": 285.3507,
        "meta_arg_of_pericenter": 88.8819,
        "meta_mean_anomaly": 271.2466,
        "meta_ephemeris_type": 0,
        "meta_classification_type": "U",
        "meta_norad_cat_id": 42969,
        "meta_element_set_no": 999,
        "meta_rev_at_epoch": 42311,
        "meta_bstar": 9.3228453e-05,
        "meta_mean_motion_dot": 1.52e-06,
        "meta_mean_motion_ddot": 0,
        "tle_line1": "1 42969U 17064A   25346.76682892  .00000152  00000+0  93228-4 0  9991",
        "tle_line2": "2 42969  98.7785 285.3507 0000950  88.8819 271.2466 14.19517585423117"
      },
      "geometry": {
        "type": "Point",
        "coordinates": [
          -151.52522221435106,
          81.01634272309131
        ]
      }
    },
    {
      "type": "Feature",
      "properties": {
        "norad_id": 42987,
        "name": "SKYSAT-C11",
        "group": "resource",
        "lat": -74.67073917935664,
        "lon": 153.57686154649502,
        "alt_km": 432.0568746737272,
        "timestamp": "2025-12-13T16:48:32.370951+00:00",
        "meta_object_name": "SKYSAT-C11",
        "meta_object_id": "2017-068A",
        "meta_epoch": "2025-12-12T22:30:58.781376",
        "meta_mean_motion": 15.47456375,
        "meta_eccentricity": 9.919e-05,
        "meta_inclination": 97.4139,
        "meta_ra_of_asc_node": 124.434,
        "meta_arg_of_pericenter": 103.3817,
        "meta_mean_anomaly": 256.7543,
        "meta_ephemeris_type": 0,
        "meta_classification_type": "U",
        "meta_norad_cat_id": 42987,
        "meta_element_set_no": 999,
        "meta_rev_at_epoch": 45434,
        "meta_bstar": 0.00057650481,
        "meta_mean_motion_dot": 0.00029543,
        "meta_mean_motion_ddot": 0,
        "tle_line1": "1 42987U 17068A   25346.93818034  .00029543  00000+0  57650-3 0  9996",
        "tle_line2": "2 42987  97.4139 124.4340 0000991 103.3817 256.7543 15.47456375454344"
      },
      "geometry": {
        "type": "Point",
        "coordinates": [
          153.57686154649502,
          -74.67073917935664
        ]
      }
    }
  ]
}